[{"OBJECT_NAME":"EXO-0","OBJECT_ID":"2023-174DK","EPOCH":"2026-03-09T17:03:04.419648","MEAN_MOTION":15.32821991,"ECCENTRICITY":0.00098779,"INCLINATION":97.3864,"RA_OF_ASC_NODE":148.9039,"ARG_OF_PERICENTER":157.1125,"MEAN_ANOMALY":203.0559,"EPHEMERIS_TYPE":0,"CLASSIFICATION_TYPE":"U","NORAD_CAT_ID":59175,"ELEMENT_SET_NO":999,"REV_AT_EPOCH":12979,"BSTAR":0.00036716083,"MEAN_MOTION_DOT":0.00011582,"MEAN_MOTION_DDOT":0},{"OBJECT_NAME":"STARLINK-35933","OBJECT_ID":"2025-265P","EPOCH":"2026-03-09T21:53:33.594432","MEAN_MOTION":15.27609192,"ECCENTRICITY":0.00015349,"INCLINATION":43.001,"RA_OF_ASC_NODE":277.0061,"ARG_OF_PERICENTER":264.9236,"MEAN_ANOMALY":95.144,"EPHEMERIS_TYPE":0,"CLASSIFICATION_TYPE":"U","NORAD_CAT_ID":66529,"ELEMENT_SET_NO":999,"REV_AT_EPOCH":1714,"BSTAR":0.00090324602,"MEAN_MOTION_DOT":0.00024699,"MEAN_MOTION_DDOT":0}]
